[{"OBJECT_NAME":"ION SCV-007","OBJECT_ID":"2023-001BD","EPOCH":"2026-03-09T17:06:57.398976","MEAN_MOTION":14.77452062,"ECCENTRICITY":0.0011115,"INCLINATION":97.9119,"RA_OF_ASC_NODE":133.6572,"ARG_OF_PERICENTER":300.6234,"MEAN_ANOMALY":59.388,"EPHEMERIS_TYPE":0,"CLASSIFICATION_TYPE":"U","NORAD_CAT_ID":55060,"ELEMENT_SET_NO":999,"REV_AT_EPOCH":17156,"BSTAR":9.8780653e-5,"MEAN_MOTION_DOT":6.53e-6,"MEAN_MOTION_DDOT":0},{"OBJECT_NAME":"KUIPER-00092","OBJECT_ID":"2025-151X","EPOCH":"2026-03-08T23:51:42.351552","MEAN_MOTION":14.7992332,"ECCENTRICITY":9.472e-5,"INCLINATION":51.9004,"RA_OF_ASC_NODE":293.6718,"ARG_OF_PERICENTER":52.0654,"MEAN_ANOMALY":308.0393,"EPHEMERIS_TYPE":0,"CLASSIFICATION_TYPE":"U","NORAD_CAT_ID":64837,"ELEMENT_SET_NO":999,"REV_AT_EPOCH":3655,"BSTAR":0.00049486471,"MEAN_MOTION_DOT":3.552e-5,"MEAN_MOTION_DDOT":0}]
