ION SCV-007             
1 55060U 23001BD  26068.71316433  .00000653  00000+0  98781-4 0  9992
2 55060  97.9119 133.6572 0011115 300.6234  59.3880 14.77452062171569
KUIPER-00092            
1 64837U 25151X   26067.99424018  .00003552  00000+0  49486-3 0  9998
2 64837  51.9004 293.6718 0000947  52.0654 308.0393 14.79923320 36552
